{
  "type": "FeatureCollection",
  "features": [
    {
      "type": "Feature",
      "properties": {
        "norad_id": 32175,
        "name": "FENGYUN 1C DEB",
        "group": "fengyun-1c-debris",
        "lat": -23.637724752801006,
        "lon": -11.546331997677292,
        "alt_km": 830.9910463325841,
        "timestamp": "2025-12-22T09:53:37.687353+00:00",
        "meta_object_name": "FENGYUN 1C DEB",
        "meta_object_id": "1999-025CTV",
        "meta_epoch": "2025-12-21T04:44:24.927072",
        "meta_mean_motion": 13.94865191,
        "meta_eccentricity": 0.01517764,
        "meta_inclination": 98.823,
        "meta_ra_of_asc_node": 343.3939,
        "meta_arg_of_pericenter": 299.9776,
        "meta_mean_anomaly": 58.6394,
        "meta_ephemeris_type": 0,
        "meta_classification_type": "U",
        "meta_norad_cat_id": 32175,
        "meta_element_set_no": 999,
        "meta_rev_at_epoch": 59958,
        "meta_bstar": 0.0018927706,
        "meta_mean_motion_dot": 2.755e-05,
        "meta_mean_motion_ddot": 0,
        "tle_line1": "1 32175U 99025CTV 25355.19751073  .00002755  00000+0  18928-2 0  9994",
        "tle_line2": "2 32175  98.8230 343.3939 0151776 299.9776  58.6394 13.94865191599588"
      },
      "geometry": {
        "type": "Point",
        "coordinates": [
          -11.546331997677292,
          -23.637724752801006
        ]
      }
    },
    {
      "type": "Feature",
      "properties": {
        "norad_id": 32177,
        "name": "FENGYUN 1C DEB",
        "group": "fengyun-1c-debris",
        "lat": 80.32073202956227,
        "lon": -62.51335524638177,
        "alt_km": 685.2904112554706,
        "timestamp": "2025-12-22T09:53:37.687362+00:00",
        "meta_object_name": "FENGYUN 1C DEB",
        "meta_object_id": "1999-025CTX",
        "meta_epoch": "2025-12-19T07:17:54.949344",
        "meta_mean_motion": 14.56293661,
        "meta_eccentricity": 0.0051637,
        "meta_inclination": 99.0437,
        "meta_ra_of_asc_node": 3.1558,
        "meta_arg_of_pericenter": 25.4129,
        "meta_mean_anomaly": 334.9588,
        "meta_ephemeris_type": 0,
        "meta_classification_type": "U",
        "meta_norad_cat_id": 32177,
        "meta_element_set_no": 999,
        "meta_rev_at_epoch": 71134,
        "meta_bstar": 0.00096839,
        "meta_mean_motion_dot": 4.312e-05,
        "meta_mean_motion_ddot": 0,
        "tle_line1": "1 32177U 99025CTX 25353.30410821  .00004312  00000+0  96839-3 0  9999",
        "tle_line2": "2 32177  99.0437   3.1558 0051637  25.4129 334.9588 14.56293661711340"
      },
      "geometry": {
        "type": "Point",
        "coordinates": [
          -62.51335524638177,
          80.32073202956227
        ]
      }
    },
    {
      "type": "Feature",
      "properties": {
        "norad_id": 32178,
        "name": "FENGYUN 1C DEB",
        "group": "fengyun-1c-debris",
        "lat": -41.43832888645766,
        "lon": 170.23339529420758,
        "alt_km": 802.9764162914962,
        "timestamp": "2025-12-22T09:53:37.687372+00:00",
        "meta_object_name": "FENGYUN 1C DEB",
        "meta_object_id": "1999-025CTY",
        "meta_epoch": "2025-12-19T06:35:46.322016",
        "meta_mean_motion": 14.2302281,
        "meta_eccentricity": 0.0094455,
        "meta_inclination": 100.3031,
        "meta_ra_of_asc_node": 355.8088,
        "meta_arg_of_pericenter": 305.4273,
        "meta_mean_anomaly": 53.8108,
        "meta_ephemeris_type": 0,
        "meta_classification_type": "U",
        "meta_norad_cat_id": 32178,
        "meta_element_set_no": 999,
        "meta_rev_at_epoch": 64096,
        "meta_bstar": 0.00088752,
        "meta_mean_motion_dot": 2.036e-05,
        "meta_mean_motion_ddot": 0,
        "tle_line1": "1 32178U 99025CTY 25353.27484169  .00002036  00000+0  88752-3 0  9998",
        "tle_line2": "2 32178 100.3031 355.8088 0094455 305.4273  53.8108 14.23022810640962"
      },
      "geometry": {
        "type": "Point",
        "coordinates": [
          170.23339529420758,
          -41.43832888645766
        ]
      }
    },
    {
      "type": "Feature",
      "properties": {
        "norad_id": 32179,
        "name": "FENGYUN 1C DEB",
        "group": "fengyun-1c-debris",
        "lat": -70.80587413409201,
        "lon": 71.8284077757828,
        "alt_km": 946.5474056287485,
        "timestamp": "2025-12-22T09:53:37.687382+00:00",
        "meta_object_name": "FENGYUN 1C DEB",
        "meta_object_id": "1999-025CTZ",
        "meta_epoch": "2025-12-21T21:24:11.888064",
        "meta_mean_motion": 14.03690129,
        "meta_eccentricity": 0.0145807,
        "meta_inclination": 98.9083,
        "meta_ra_of_asc_node": 44.5401,
        "meta_arg_of_pericenter": 164.477,
        "meta_mean_anomaly": 12.768,
        "meta_ephemeris_type": 0,
        "meta_classification_type": "U",
        "meta_norad_cat_id": 32179,
        "meta_element_set_no": 999,
        "meta_rev_at_epoch": 65856,
        "meta_bstar": 0.00043437,
        "meta_mean_motion_dot": 7.08e-06,
        "meta_mean_motion_ddot": 0,
        "tle_line1": "1 32179U 99025CTZ 25355.89180426  .00000708  00000+0  43437-3 0  9993",
        "tle_line2": "2 32179  98.9083  44.5401 0145807 164.4770  12.7680 14.03690129658562"
      },
      "geometry": {
        "type": "Point",
        "coordinates": [
          71.8284077757828,
          -70.80587413409201
        ]
      }
    },
    {
      "type": "Feature",
      "properties": {
        "norad_id": 32180,
        "name": "FENGYUN 1C DEB",
        "group": "fengyun-1c-debris",
        "lat": -5.172634711496794,
        "lon": -144.1781253818859,
        "alt_km": 858.8663117753467,
        "timestamp": "2025-12-22T09:53:37.687393+00:00",
        "meta_object_name": "FENGYUN 1C DEB",
        "meta_object_id": "1999-025CUA",
        "meta_epoch": "2025-12-22T02:11:55.313952",
        "meta_mean_motion": 13.82330235,
        "meta_eccentricity": 0.0136673,
        "meta_inclination": 99.5844,
        "meta_ra_of_asc_node": 36.3723,
        "meta_arg_of_pericenter": 185.8241,
        "meta_mean_anomaly": 204.5693,
        "meta_ephemeris_type": 0,
        "meta_classification_type": "U",
        "meta_norad_cat_id": 32180,
        "meta_element_set_no": 999,
        "meta_rev_at_epoch": 94397,
        "meta_bstar": 0.00011765,
        "meta_mean_motion_dot": 9e-07,
        "meta_mean_motion_ddot": 0,
        "tle_line1": "1 32180U 99025CUA 25356.09161243  .00000090  00000+0  11765-3 0  9997",
        "tle_line2": "2 32180  99.5844  36.3723 0136673 185.8241 204.5693 13.82330235943975"
      },
      "geometry": {
        "type": "Point",
        "coordinates": [
          -144.1781253818859,
          -5.172634711496794
        ]
      }
    },
    {
      "type": "Feature",
      "properties": {
        "norad_id": 32181,
        "name": "FENGYUN 1C DEB",
        "group": "fengyun-1c-debris",
        "lat": 21.835488979422312,
        "lon": -74.67001420334644,
        "alt_km": 715.0318405820735,
        "timestamp": "2025-12-22T09:53:37.687402+00:00",
        "meta_object_name": "FENGYUN 1C DEB",
        "meta_object_id": "1999-025CUB",
        "meta_epoch": "2025-12-22T03:07:48.053856",
        "meta_mean_motion": 14.56100515,
        "meta_eccentricity": 0.0073486,
        "meta_inclination": 99.4727,
        "meta_ra_of_asc_node": 101.1744,
        "meta_arg_of_pericenter": 57.632,
        "meta_mean_anomaly": 62.8071,
        "meta_ephemeris_type": 0,
        "meta_classification_type": "U",
        "meta_norad_cat_id": 32181,
        "meta_element_set_no": 999,
        "meta_rev_at_epoch": 96857,
        "meta_bstar": 0.00087002,
        "meta_mean_motion_dot": 3.92e-05,
        "meta_mean_motion_ddot": 0,
        "tle_line1": "1 32181U 99025CUB 25356.13041729  .00003920  00000+0  87002-3 0  9991",
        "tle_line2": "2 32181  99.4727 101.1744 0073486  57.6320  62.8071 14.56100515968571"
      },
      "geometry": {
        "type": "Point",
        "coordinates": [
          -74.67001420334644,
          21.835488979422312
        ]
      }
    },
    {
      "type": "Feature",
      "properties": {
        "norad_id": 32183,
        "name": "FENGYUN 1C DEB",
        "group": "fengyun-1c-debris",
        "lat": 8.27122009024037,
        "lon": -131.41170065515792,
        "alt_km": 883.4092678291663,
        "timestamp": "2025-12-22T09:53:37.687412+00:00",
        "meta_object_name": "FENGYUN 1C DEB",
        "meta_object_id": "1999-025CUD",
        "meta_epoch": "2025-12-21T09:14:40.661376",
        "meta_mean_motion": 14.101046,
        "meta_eccentricity": 0.00424898,
        "meta_inclination": 98.7126,
        "meta_ra_of_asc_node": 46.3163,
        "meta_arg_of_pericenter": 36.8584,
        "meta_mean_anomaly": 323.5495,
        "meta_ephemeris_type": 0,
        "meta_classification_type": "U",
        "meta_norad_cat_id": 32183,
        "meta_element_set_no": 999,
        "meta_rev_at_epoch": 72886,
        "meta_bstar": 0.0005355867,
        "meta_mean_motion_dot": 9.12e-06,
        "meta_mean_motion_ddot": 0,
        "tle_line1": "1 32183U 99025CUD 25355.38519284  .00000912  00000+0  53559-3 0  9993",
        "tle_line2": "2 32183  98.7126  46.3163 0042489  36.8584 323.5495 14.10104600728865"
      },
      "geometry": {
        "type": "Point",
        "coordinates": [
          -131.41170065515792,
          8.27122009024037
        ]
      }
    }
  ]
}